start=new Date('2021-12-09T00:00:00.000Z').valueOf();
sats=[{"SEMIMAJOR_AXIS":"6717.839","OBJECT_ID":"2021-021AY","MEAN_MOTION_DOT":"0.00023558","OBJECT_TYPE":"PAYLOAD","RCS_SIZE":"LARGE","NORAD_CAT_ID":"47906","TIME_SYSTEM":"UTC","SITE":"AFETR","REV_AT_EPOCH":"4339","CENTER_NAME":"EARTH","TLE_LINE2":"2 47906  53.0513 326.1551 0003086  64.6786 295.4553 15.76733879 43390","EPOCH":"2021-12-08T16:16:48.359136","PERIAPSIS":"337.631","BSTAR":"0.00014747000000","MEAN_MOTION_DDOT":"0.0000000000000","RA_OF_ASC_NODE":"326.1551","COUNTRY_CODE":"US","GP_ID":"191364102","APOAPSIS":"341.777","OBJECT_NAME":"STARLINK-2366","MEAN_ANOMALY":"295.4553","ARG_OF_PERICENTER":"64.6786","MEAN_MOTION":"15.76733879","FILE":"3235972","INCLINATION":"53.0513","REF_FRAME":"TEME","ELEMENT_SET_NO":"999","LAUNCH_DATE":"2021-03-14","ECCENTRICITY":"0.00030860","PERIOD":"91.328","DECAY_DATE":null,"CLASSIFICATION_TYPE":"U","MEAN_ELEMENT_THEORY":"SGP4","TLE_LINE1":"1 47906U 21021AY  21342.67833749  .00023558  00000-0  14747-3 0  9990","EPHEMERIS_TYPE":"0"},{"GP_ID":"191339052","APOAPSIS":"548.142","OBJECT_NAME":"STARLINK-2367","MEAN_ANOMALY":"287.9435","ARG_OF_PERICENTER":"72.1696","MEAN_MOTION":"15.06392982","REF_FRAME":"TEME","FILE":"3235801","INCLINATION":"53.0579","LAUNCH_DATE":"2021-03-14","ELEMENT_SET_NO":"999","ECCENTRICITY":"0.00013090","DECAY_DATE":null,"PERIOD":"95.593","CLASSIFICATION_TYPE":"U","MEAN_ELEMENT_THEORY":"SGP4","TLE_LINE1":"1 47907U 21021AZ  21342.51214896 -.00000188  00000-0  62551-5 0  9993","EPHEMERIS_TYPE":"0","SEMIMAJOR_AXIS":"6925.370","OBJECT_ID":"2021-021AZ","OBJECT_TYPE":"PAYLOAD","MEAN_MOTION_DOT":"-0.00000188","RCS_SIZE":"LARGE","NORAD_CAT_ID":"47907","TIME_SYSTEM":"UTC","SITE":"AFETR","REV_AT_EPOCH":"4162","CENTER_NAME":"EARTH","TLE_LINE2":"2 47907  53.0579  49.6194 0001309  72.1696 287.9435 15.06392982 41621","PERIAPSIS":"546.329","EPOCH":"2021-12-08T12:17:29.670144","MEAN_MOTION_DDOT":"0.0000000000000","BSTAR":"0.00000625510000","COUNTRY_CODE":"US","RA_OF_ASC_NODE":"49.6194"},{"CENTER_NAME":"EARTH","EPOCH":"2021-12-08T15:39:10.881792","PERIAPSIS":"546.415","TLE_LINE2":"2 47908  53.0573  48.9845 0001165  73.3099 286.8018 15.06397460 42117","RA_OF_ASC_NODE":"48.9845","COUNTRY_CODE":"US","BSTAR":"0.00009545100000","MEAN_MOTION_DDOT":"0.0000000000000","OBJECT_ID":"2021-021BA","SEMIMAJOR_AXIS":"6925.356","MEAN_MOTION_DOT":"0.00001141","OBJECT_TYPE":"PAYLOAD","NORAD_CAT_ID":"47908","TIME_SYSTEM":"UTC","RCS_SIZE":"LARGE","REV_AT_EPOCH":"4211","SITE":"AFETR","ECCENTRICITY":"0.00011650","CLASSIFICATION_TYPE":"U","DECAY_DATE":null,"PERIOD":"95.592","TLE_LINE1":"1 47908U 21021BA  21342.65220928  .00001141  00000-0  95451-4 0  9995","EPHEMERIS_TYPE":"0","MEAN_ELEMENT_THEORY":"SGP4","GP_ID":"191365104","OBJECT_NAME":"STARLINK-2368","APOAPSIS":"548.028","MEAN_MOTION":"15.06397460","MEAN_ANOMALY":"286.8018","ARG_OF_PERICENTER":"73.3099","ELEMENT_SET_NO":"999","LAUNCH_DATE":"2021-03-14","FILE":"3235972","REF_FRAME":"TEME","INCLINATION":"53.0573"},{"REV_AT_EPOCH":"4245","SITE":"AFETR","TIME_SYSTEM":"UTC","NORAD_CAT_ID":"47909","RCS_SIZE":"MEDIUM","MEAN_MOTION_DOT":"0.00001136","OBJECT_TYPE":"PAYLOAD","OBJECT_ID":"2021-021BB","SEMIMAJOR_AXIS":"6925.362","RA_OF_ASC_NODE":"38.0272","COUNTRY_CODE":"US","BSTAR":"0.00009514300000","MEAN_MOTION_DDOT":"0.0000000000000","EPOCH":"2021-12-08T20:48:21.250368","PERIAPSIS":"546.325","TLE_LINE2":"2 47909  53.0581  38.0272 0001302  75.8202 284.2932 15.06395602 42457","CENTER_NAME":"EARTH","ELEMENT_SET_NO":"999","LAUNCH_DATE":"2021-03-14","FILE":"3235972","INCLINATION":"53.0581","REF_FRAME":"TEME","MEAN_MOTION":"15.06395602","MEAN_ANOMALY":"284.2932","ARG_OF_PERICENTER":"75.8202","OBJECT_NAME":"STARLINK-2369","APOAPSIS":"548.129","GP_ID":"191364854","TLE_LINE1":"1 47909U 21021BB  21342.86691262  .00001136  00000-0  95143-4 0  9994","EPHEMERIS_TYPE":"0","MEAN_ELEMENT_THEORY":"SGP4","CLASSIFICATION_TYPE":"U","DECAY_DATE":null,"PERIOD":"95.592","ECCENTRICITY":"0.00013020"},{"CENTER_NAME":"EARTH","MEAN_MOTION_DDOT":"0.0000000000000","BSTAR":"-0.00001220000000","COUNTRY_CODE":"US","RA_OF_ASC_NODE":"39.9340","TLE_LINE2":"2 47910  53.0564  39.9340 0001449  60.7348 299.3786 15.06396864 42244","PERIAPSIS":"546.220","EPOCH":"2021-12-08T10:31:17.976000","MEAN_MOTION_DOT":"-0.00000463","OBJECT_TYPE":"PAYLOAD","SEMIMAJOR_AXIS":"6925.358","OBJECT_ID":"2021-021BC","SITE":"AFETR","REV_AT_EPOCH":"4224","RCS_SIZE":"LARGE","NORAD_CAT_ID":"47910","TIME_SYSTEM":"UTC","PERIOD":"95.592","DECAY_DATE":null,"CLASSIFICATION_TYPE":"U","ECCENTRICITY":"0.00014490","MEAN_ELEMENT_THEORY":"SGP4","EPHEMERIS_TYPE":"0","TLE_LINE1":"1 47910U 21021BC  21342.43840250 -.00000463  00000-0 -12200-4 0  9999","APOAPSIS":"548.227","OBJECT_NAME":"STARLINK-2370","GP_ID":"191335364","REF_FRAME":"TEME","FILE":"3235746","INCLINATION":"53.0564","LAUNCH_DATE":"2021-03-14","ELEMENT_SET_NO":"999","ARG_OF_PERICENTER":"60.7348","MEAN_ANOMALY":"299.3786","MEAN_MOTION":"15.06396864"},{"CENTER_NAME":"EARTH","RA_OF_ASC_NODE":"54.6877","COUNTRY_CODE":"US","BSTAR":"-0.00000217700000","MEAN_MOTION_DDOT":"0.0000000000000","EPOCH":"2021-12-08T11:56:53.262816","PERIAPSIS":"546.286","TLE_LINE2":"2 47911  53.0571  54.6877 0001352  72.5458 287.5678 15.06396997 41872","MEAN_MOTION_DOT":"-0.00000314","OBJECT_TYPE":"PAYLOAD","OBJECT_ID":"2021-021BD","SEMIMAJOR_AXIS":"6925.358","REV_AT_EPOCH":"4187","SITE":"AFETR","TIME_SYSTEM":"UTC","NORAD_CAT_ID":"47911","RCS_SIZE":"LARGE","CLASSIFICATION_TYPE":"U","DECAY_DATE":null,"PERIOD":"95.592","ECCENTRICITY":"0.00013520","TLE_LINE1":"1 47911U 21021BD  21342.49783869 -.00000314  00000-0 -21770-5 0  9996","EPHEMERIS_TYPE":"0","MEAN_ELEMENT_THEORY":"SGP4","OBJECT_NAME":"STARLINK-2371","APOAPSIS":"548.159","GP_ID":"191336615","ELEMENT_SET_NO":"999","LAUNCH_DATE":"2021-03-14","INCLINATION":"53.0571","FILE":"3235746","REF_FRAME":"TEME","MEAN_MOTION":"15.06396997","MEAN_ANOMALY":"287.5678","ARG_OF_PERICENTER":"72.5458"},{"LAUNCH_DATE":"2021-03-14","ELEMENT_SET_NO":"999","FILE":"3235972","REF_FRAME":"TEME","INCLINATION":"53.0548","MEAN_MOTION":"15.06393746","MEAN_ANOMALY":"293.6509","ARG_OF_PERICENTER":"66.4623","OBJECT_NAME":"STARLINK-2372","APOAPSIS":"548.175","GP_ID":"191364604","TLE_LINE1":"1 47912U 21021BE  21342.63101631  .00001116  00000-0  93809-4 0  9994","EPHEMERIS_TYPE":"0","MEAN_ELEMENT_THEORY":"SGP4","CLASSIFICATION_TYPE":"U","PERIOD":"95.593","DECAY_DATE":null,"ECCENTRICITY":"0.00013610","REV_AT_EPOCH":"4210","SITE":"AFETR","TIME_SYSTEM":"UTC","NORAD_CAT_ID":"47912","RCS_SIZE":"LARGE","MEAN_MOTION_DOT":"0.00001116","OBJECT_TYPE":"PAYLOAD","OBJECT_ID":"2021-021BE","SEMIMAJOR_AXIS":"6925.368","COUNTRY_CODE":"US","RA_OF_ASC_NODE":"39.0728","MEAN_MOTION_DDOT":"0.0000000000000","BSTAR":"0.00009380900000","PERIAPSIS":"546.290","EPOCH":"2021-12-08T15:08:39.809184","TLE_LINE2":"2 47912  53.0548  39.0728 0001361  66.4623 293.6509 15.06393746 42102","CENTER_NAME":"EARTH"},{"ECCENTRICITY":"0.00011320","DECAY_DATE":null,"PERIOD":"95.592","CLASSIFICATION_TYPE":"U","MEAN_ELEMENT_THEORY":"SGP4","EPHEMERIS_TYPE":"0","TLE_LINE1":"1 47913U 21021BF  21342.65863513  .00001221  00000-0  10084-3 0  9991","GP_ID":"191365355","APOAPSIS":"548.003","OBJECT_NAME":"STARLINK-2374","ARG_OF_PERICENTER":"74.5144","MEAN_ANOMALY":"285.5970","MEAN_MOTION":"15.06398116","INCLINATION":"53.0560","FILE":"3235972","REF_FRAME":"TEME","ELEMENT_SET_NO":"999","LAUNCH_DATE":"2021-03-14","CENTER_NAME":"EARTH","TLE_LINE2":"2 47913  53.0560  48.9644 0001132  74.5144 285.5970 15.06398116 42138","EPOCH":"2021-12-08T15:48:26.075232","PERIAPSIS":"546.435","BSTAR":"0.00010084000000","MEAN_MOTION_DDOT":"0.0000000000000","RA_OF_ASC_NODE":"48.9644","COUNTRY_CODE":"US","SEMIMAJOR_AXIS":"6925.354","OBJECT_ID":"2021-021BF","MEAN_MOTION_DOT":"0.00001221","OBJECT_TYPE":"PAYLOAD","RCS_SIZE":"LARGE","NORAD_CAT_ID":"47913","TIME_SYSTEM":"UTC","SITE":"AFETR","REV_AT_EPOCH":"4213"},{"PERIAPSIS":"546.344","EPOCH":"2021-12-08T14:08:57.345504","TLE_LINE2":"2 47914  53.0579  49.2718 0001280  81.5122 278.6012 15.06394602 42117","COUNTRY_CODE":"US","RA_OF_ASC_NODE":"49.2718","MEAN_MOTION_DDOT":"0.0000000000000","BSTAR":"0.00013363000000","CENTER_NAME":"EARTH","NORAD_CAT_ID":"47914","TIME_SYSTEM":"UTC","RCS_SIZE":"LARGE","REV_AT_EPOCH":"4211","SITE":"AFETR","OBJECT_ID":"2021-021BG","SEMIMAJOR_AXIS":"6925.365","MEAN_MOTION_DOT":"0.00001709","OBJECT_TYPE":"PAYLOAD","TLE_LINE1":"1 47914U 21021BG  21342.58955261  .00001709  00000-0  13363-3 0  9990","EPHEMERIS_TYPE":"0","MEAN_ELEMENT_THEORY":"SGP4","ECCENTRICITY":"0.00012800","CLASSIFICATION_TYPE":"U","PERIOD":"95.592","DECAY_DATE":null,"MEAN_MOTION":"15.06394602","ARG_OF_PERICENTER":"81.5122","MEAN_ANOMALY":"278.6012","LAUNCH_DATE":"2021-03-14","ELEMENT_SET_NO":"999","FILE":"3235972","INCLINATION":"53.0579","REF_FRAME":"TEME","GP_ID":"191364103","OBJECT_NAME":"STARLINK-2375","APOAPSIS":"548.117"},{"TLE_LINE2":"2 47915  53.0628  44.8428 0001540  78.4106 281.7056 15.06398712 41688","EPOCH":"2021-12-08T10:55:52.861152","PERIAPSIS":"546.151","BSTAR":"-0.00002927000000","MEAN_MOTION_DDOT":"0.0000000000000","RA_OF_ASC_NODE":"44.8428","COUNTRY_CODE":"US","CENTER_NAME":"EARTH","RCS_SIZE":"LARGE","TIME_SYSTEM":"UTC","NORAD_CAT_ID":"47915","SITE":"AFETR","REV_AT_EPOCH":"4168","SEMIMAJOR_AXIS":"6925.353","OBJECT_ID":"2021-021BH","OBJECT_TYPE":"PAYLOAD","MEAN_MOTION_DOT":"-0.00000717","MEAN_ELEMENT_THEORY":"SGP4","EPHEMERIS_TYPE":"0","TLE_LINE1":"1 47915U 21021BH  21342.45547293 -.00000717  00000-0 -29270-4 0  9994","ECCENTRICITY":"0.00015400","DECAY_DATE":null,"PERIOD":"95.592","CLASSIFICATION_TYPE":"U","MEAN_ANOMALY":"281.7056","ARG_OF_PERICENTER":"78.4106","MEAN_MOTION":"15.06398712","FILE":"3235789","REF_FRAME":"TEME","INCLINATION":"53.0628","ELEMENT_SET_NO":"999","LAUNCH_DATE":"2021-03-14","GP_ID":"191338868","APOAPSIS":"548.284","OBJECT_NAME":"STARLINK-2376"}];
